STARLINK-2279_new
1 17991C 21024Q   21326.19705266  .00002711  00000-0  18973-3 0  3265
2 17991  53.0540 101.7944 0001346  77.5555 138.4623 15.04775547    16
STARLINK-2279_old
1 27991C 21024Q   21325.14515742  .00000788  00000-0  55193-4 0  3254
2 27991  53.0541 106.5042 0001385  77.1369 197.4179 15.04771399    13
